AEROCUBE 18B            
1 63222U 25052N   25333.65078144  .00009163  00000+0  41277-3 0  9992
2 63222  97.4176 224.7951 0006566 101.8698 258.3275 15.21260160 39522
DROID.002               
1 63223U 25052P   25333.66379069  .00006716  00000+0  30885-3 0  9998
2 63223  97.4131 224.6190 0005873 103.9052 256.2837 15.20657457 39524
TOMORROW-S6             
1 63225U 25052R   25334.15033738  .00005990  00000+0  27915-3 0  9998
2 63225  97.4204 225.1113 0007090 104.9984 255.2036 15.20239131 39587
ETIHAD-SAT              
1 63226U 25052S   25333.97170502  .00006396  00000+0  30058-3 0  9992
2 63226  97.4163 224.7770 0007012 111.3396 248.8588 15.19923494 39556
CLARITY-1               
1 63227U 25052T   25333.71285928  .00047904  00000+0  44128-3 0  9997
2 63227  97.4320 234.0471 0003578  98.7447 261.4219 15.67504406 40119
2025-052U               
1 63228U 25052U   25333.66396500  .00007395  00000+0  33938-3 0  9998
2 63228  97.4122 224.4527 0006792 117.9294 242.2630 15.20688184 39511
SPACEEYE-T1             
1 63229U 25052V   25333.64903103  .00006643  00000+0  31085-3 0  9996
2 63229  97.4150 224.4136 0006428 118.2312 241.9573 15.20059965 39500
ION SCV-017             
1 63230U 25052W   25333.66855807  .00005931  00000+0  23465-3 0  9999
2 63230  97.4099 225.5685 0024474  38.1739 322.1227 15.25558392 39599
