{
  "type": "FeatureCollection",
  "features": [
    {
      "type": "Feature",
      "properties": {
        "OBJECT_NAME": "AEROCUBE 18B",
        "OBJECT_ID": "2025-052N",
        "EPOCH": "2025-11-29T15:37:07.516416",
        "MEAN_MOTION": 15.2126016,
        "ECCENTRICITY": 0.0006566,
        "INCLINATION": 97.4176,
        "RA_OF_ASC_NODE": 224.7951,
        "ARG_OF_PERICENTER": 101.8698,
        "MEAN_ANOMALY": 258.3275,
        "EPHEMERIS_TYPE": 0,
        "CLASSIFICATION_TYPE": "U",
        "NORAD_CAT_ID": 63222,
        "ELEMENT_SET_NO": 999,
        "REV_AT_EPOCH": 3952,
        "BSTAR": 0.00041277,
        "MEAN_MOTION_DOT": 9.163e-05,
        "MEAN_MOTION_DDOT": 0,
        "norad_id": 63222,
        "name": "AEROCUBE 18B",
        "group": "active",
        "longitude_deg": NaN,
        "latitude_deg": NaN,
        "alt_km": NaN,
        "orbit_class": "HEO",
        "timestamp": "2025-11-30T09:33:02.572326+00:00"
      },
      "geometry": {
        "type": "Point",
        "coordinates": [
          NaN,
          NaN
        ]
      }
    },
    {
      "type": "Feature",
      "properties": {
        "OBJECT_NAME": "DROID.002",
        "OBJECT_ID": "2025-052P",
        "EPOCH": "2025-11-29T15:55:51.515616",
        "MEAN_MOTION": 15.20657457,
        "ECCENTRICITY": 0.0005873,
        "INCLINATION": 97.4131,
        "RA_OF_ASC_NODE": 224.619,
        "ARG_OF_PERICENTER": 103.9052,
        "MEAN_ANOMALY": 256.2837,
        "EPHEMERIS_TYPE": 0,
        "CLASSIFICATION_TYPE": "U",
        "NORAD_CAT_ID": 63223,
        "ELEMENT_SET_NO": 999,
        "REV_AT_EPOCH": 3952,
        "BSTAR": 0.00030885,
        "MEAN_MOTION_DOT": 6.716e-05,
        "MEAN_MOTION_DDOT": 0,
        "norad_id": 63223,
        "name": "DROID.002",
        "group": "active",
        "longitude_deg": NaN,
        "latitude_deg": NaN,
        "alt_km": NaN,
        "orbit_class": "HEO",
        "timestamp": "2025-11-30T09:33:02.572332+00:00"
      },
      "geometry": {
        "type": "Point",
        "coordinates": [
          NaN,
          NaN
        ]
      }
    },
    {
      "type": "Feature",
      "properties": {
        "OBJECT_NAME": "TOMORROW-S6",
        "OBJECT_ID": "2025-052R",
        "EPOCH": "2025-11-30T03:36:29.149632",
        "MEAN_MOTION": 15.20239131,
        "ECCENTRICITY": 0.000709,
        "INCLINATION": 97.4204,
        "RA_OF_ASC_NODE": 225.1113,
        "ARG_OF_PERICENTER": 104.9984,
        "MEAN_ANOMALY": 255.2036,
        "EPHEMERIS_TYPE": 0,
        "CLASSIFICATION_TYPE": "U",
        "NORAD_CAT_ID": 63225,
        "ELEMENT_SET_NO": 999,
        "REV_AT_EPOCH": 3958,
        "BSTAR": 0.00027915,
        "MEAN_MOTION_DOT": 5.99e-05,
        "MEAN_MOTION_DDOT": 0,
        "norad_id": 63225,
        "name": "TOMORROW-S6",
        "group": "active",
        "longitude_deg": NaN,
        "latitude_deg": NaN,
        "alt_km": NaN,
        "orbit_class": "HEO",
        "timestamp": "2025-11-30T09:33:02.572338+00:00"
      },
      "geometry": {
        "type": "Point",
        "coordinates": [
          NaN,
          NaN
        ]
      }
    },
    {
      "type": "Feature",
      "properties": {
        "OBJECT_NAME": "ETIHAD-SAT",
        "OBJECT_ID": "2025-052S",
        "EPOCH": "2025-11-29T23:19:15.313728",
        "MEAN_MOTION": 15.19923494,
        "ECCENTRICITY": 0.0007012,
        "INCLINATION": 97.4163,
        "RA_OF_ASC_NODE": 224.777,
        "ARG_OF_PERICENTER": 111.3396,
        "MEAN_ANOMALY": 248.8588,
        "EPHEMERIS_TYPE": 0,
        "CLASSIFICATION_TYPE": "U",
        "NORAD_CAT_ID": 63226,
        "ELEMENT_SET_NO": 999,
        "REV_AT_EPOCH": 3955,
        "BSTAR": 0.00030058,
        "MEAN_MOTION_DOT": 6.396e-05,
        "MEAN_MOTION_DDOT": 0,
        "norad_id": 63226,
        "name": "ETIHAD-SAT",
        "group": "active",
        "longitude_deg": NaN,
        "latitude_deg": NaN,
        "alt_km": NaN,
        "orbit_class": "HEO",
        "timestamp": "2025-11-30T09:33:02.572346+00:00"
      },
      "geometry": {
        "type": "Point",
        "coordinates": [
          NaN,
          NaN
        ]
      }
    },
    {
      "type": "Feature",
      "properties": {
        "OBJECT_NAME": "CLARITY-1",
        "OBJECT_ID": "2025-052T",
        "EPOCH": "2025-11-29T17:06:31.041792",
        "MEAN_MOTION": 15.67504406,
        "ECCENTRICITY": 0.0003578,
        "INCLINATION": 97.432,
        "RA_OF_ASC_NODE": 234.0471,
        "ARG_OF_PERICENTER": 98.7447,
        "MEAN_ANOMALY": 261.4219,
        "EPHEMERIS_TYPE": 0,
        "CLASSIFICATION_TYPE": "U",
        "NORAD_CAT_ID": 63227,
        "ELEMENT_SET_NO": 999,
        "REV_AT_EPOCH": 4011,
        "BSTAR": 0.00044128,
        "MEAN_MOTION_DOT": 0.00047904,
        "MEAN_MOTION_DDOT": 0,
        "norad_id": 63227,
        "name": "CLARITY-1",
        "group": "active",
        "longitude_deg": NaN,
        "latitude_deg": NaN,
        "alt_km": NaN,
        "orbit_class": "HEO",
        "timestamp": "2025-11-30T09:33:02.572354+00:00"
      },
      "geometry": {
        "type": "Point",
        "coordinates": [
          NaN,
          NaN
        ]
      }
    },
    {
      "type": "Feature",
      "properties": {
        "OBJECT_NAME": "2025-052U",
        "OBJECT_ID": "2025-052U",
        "EPOCH": "2025-11-29T15:56:06.576000",
        "MEAN_MOTION": 15.20688184,
        "ECCENTRICITY": 0.0006792,
        "INCLINATION": 97.4122,
        "RA_OF_ASC_NODE": 224.4527,
        "ARG_OF_PERICENTER": 117.9294,
        "MEAN_ANOMALY": 242.263,
        "EPHEMERIS_TYPE": 0,
        "CLASSIFICATION_TYPE": "U",
        "NORAD_CAT_ID": 63228,
        "ELEMENT_SET_NO": 999,
        "REV_AT_EPOCH": 3951,
        "BSTAR": 0.00033938,
        "MEAN_MOTION_DOT": 7.395e-05,
        "MEAN_MOTION_DDOT": 0,
        "norad_id": 63228,
        "name": "2025-052U",
        "group": "active",
        "longitude_deg": NaN,
        "latitude_deg": NaN,
        "alt_km": NaN,
        "orbit_class": "HEO",
        "timestamp": "2025-11-30T09:33:02.572360+00:00"
      },
      "geometry": {
        "type": "Point",
        "coordinates": [
          NaN,
          NaN
        ]
      }
    },
    {
      "type": "Feature",
      "properties": {
        "OBJECT_NAME": "SPACEEYE-T1",
        "OBJECT_ID": "2025-052V",
        "EPOCH": "2025-11-29T15:34:36.280992",
        "MEAN_MOTION": 15.20059965,
        "ECCENTRICITY": 0.0006428,
        "INCLINATION": 97.415,
        "RA_OF_ASC_NODE": 224.4136,
        "ARG_OF_PERICENTER": 118.2312,
        "MEAN_ANOMALY": 241.9573,
        "EPHEMERIS_TYPE": 0,
        "CLASSIFICATION_TYPE": "U",
        "NORAD_CAT_ID": 63229,
        "ELEMENT_SET_NO": 999,
        "REV_AT_EPOCH": 3950,
        "BSTAR": 0.00031085,
        "MEAN_MOTION_DOT": 6.643e-05,
        "MEAN_MOTION_DDOT": 0,
        "norad_id": 63229,
        "name": "SPACEEYE-T1",
        "group": "active",
        "longitude_deg": NaN,
        "latitude_deg": NaN,
        "alt_km": NaN,
        "orbit_class": "HEO",
        "timestamp": "2025-11-30T09:33:02.572368+00:00"
      },
      "geometry": {
        "type": "Point",
        "coordinates": [
          NaN,
          NaN
        ]
      }
    },
    {
      "type": "Feature",
      "properties": {
        "OBJECT_NAME": "ION SCV-017",
        "OBJECT_ID": "2025-052W",
        "EPOCH": "2025-11-29T16:02:43.417248",
        "MEAN_MOTION": 15.25558392,
        "ECCENTRICITY": 0.0024474,
        "INCLINATION": 97.4099,
        "RA_OF_ASC_NODE": 225.5685,
        "ARG_OF_PERICENTER": 38.1739,
        "MEAN_ANOMALY": 322.1227,
        "EPHEMERIS_TYPE": 0,
        "CLASSIFICATION_TYPE": "U",
        "NORAD_CAT_ID": 63230,
        "ELEMENT_SET_NO": 999,
        "REV_AT_EPOCH": 3959,
        "BSTAR": 0.00023465,
        "MEAN_MOTION_DOT": 5.931e-05,
        "MEAN_MOTION_DDOT": 0,
        "norad_id": 63230,
        "name": "ION SCV-017",
        "group": "active",
        "longitude_deg": NaN,
        "latitude_deg": NaN,
        "alt_km": NaN,
        "orbit_class": "HEO",
        "timestamp": "2025-11-30T09:33:02.572374+00:00"
      },
      "geometry": {
        "type": "Point",
        "coordinates": [
          NaN,
          NaN
        ]
      }
    }
  ]
}